{
  "type": "FeatureCollection",
  "features": [
    {
      "type": "Feature",
      "properties": {
        "norad_id": 43783,
        "name": "KAZSTSAT",
        "group": "resource",
        "lat": 11.239714702789117,
        "lon": 26.179256284188167,
        "alt_km": 568.7494902679045,
        "timestamp": "2025-12-18T17:50:14.614090+00:00",
        "meta_object_name": "KAZSTSAT",
        "meta_object_id": "2018-099AB",
        "meta_epoch": "2025-12-18T01:46:12.639360",
        "meta_mean_motion": 14.99362762,
        "meta_eccentricity": 0.00059217,
        "meta_inclination": 97.4539,
        "meta_ra_of_asc_node": 27.0295,
        "meta_arg_of_pericenter": 306.4934,
        "meta_mean_anomaly": 53.5744,
        "meta_ephemeris_type": 0,
        "meta_classification_type": "U",
        "meta_norad_cat_id": 43783,
        "meta_element_set_no": 999,
        "meta_rev_at_epoch": 38416,
        "meta_bstar": 4.2838282e-05,
        "meta_mean_motion_dot": 4.68e-06,
        "meta_mean_motion_ddot": 0,
        "tle_line1": "1 43783U 18099AB  25352.07375740  .00000468  00000+0  42838-4 0  9998",
        "tle_line2": "2 43783  97.4539  27.0295 0005921 306.4934  53.5744 14.99362762384164"
      },
      "geometry": {
        "type": "Point",
        "coordinates": [
          26.179256284188167,
          11.239714702789117
        ]
      }
    },
    {
      "type": "Feature",
      "properties": {
        "norad_id": 43831,
        "name": "SAUDISAT 5A",
        "group": "resource",
        "lat": -82.30352050862517,
        "lon": 125.21767315988667,
        "alt_km": 502.46347145011805,
        "timestamp": "2025-12-18T17:50:14.614100+00:00",
        "meta_object_name": "SAUDISAT 5A",
        "meta_object_id": "2018-102A",
        "meta_epoch": "2025-12-18T07:12:11.536128",
        "meta_mean_motion": 15.2572467,
        "meta_eccentricity": 0.00115157,
        "meta_inclination": 97.3351,
        "meta_ra_of_asc_node": 52.3843,
        "meta_arg_of_pericenter": 59.1257,
        "meta_mean_anomaly": 301.1113,
        "meta_ephemeris_type": 0,
        "meta_classification_type": "U",
        "meta_norad_cat_id": 43831,
        "meta_element_set_no": 999,
        "meta_rev_at_epoch": 38807,
        "meta_bstar": 0.00020692232,
        "meta_mean_motion_dot": 5.214e-05,
        "meta_mean_motion_ddot": 0,
        "tle_line1": "1 43831U 18102A   25352.30013352  .00005214  00000+0  20692-3 0  9998",
        "tle_line2": "2 43831  97.3351  52.3843 0011515  59.1257 301.1113 15.25724670388071"
      },
      "geometry": {
        "type": "Point",
        "coordinates": [
          125.21767315988667,
          -82.30352050862517
        ]
      }
    },
    {
      "type": "Feature",
      "properties": {
        "norad_id": 43833,
        "name": "SAUDISAT 5B",
        "group": "resource",
        "lat": -27.783321335494286,
        "lon": 59.4649558299595,
        "alt_km": 493.0803270610513,
        "timestamp": "2025-12-18T17:50:14.614110+00:00",
        "meta_object_name": "SAUDISAT 5B",
        "meta_object_id": "2018-102C",
        "meta_epoch": "2025-12-18T06:56:39.109056",
        "meta_mean_motion": 15.26074824,
        "meta_eccentricity": 0.00122596,
        "meta_inclination": 97.3447,
        "meta_ra_of_asc_node": 55.1222,
        "meta_arg_of_pericenter": 61.3175,
        "meta_mean_anomaly": 298.9294,
        "meta_ephemeris_type": 0,
        "meta_classification_type": "U",
        "meta_norad_cat_id": 43833,
        "meta_element_set_no": 999,
        "meta_rev_at_epoch": 38818,
        "meta_bstar": 0.00020060512,
        "meta_mean_motion_dot": 5.108e-05,
        "meta_mean_motion_ddot": 0,
        "tle_line1": "1 43833U 18102C   25352.28934154  .00005108  00000+0  20061-3 0  9991",
        "tle_line2": "2 43833  97.3447  55.1222 0012259  61.3175 298.9294 15.26074824388186"
      },
      "geometry": {
        "type": "Point",
        "coordinates": [
          59.4649558299595,
          -27.783321335494286
        ]
      }
    },
    {
      "type": "Feature",
      "properties": {
        "norad_id": 44622,
        "name": "GAOFEN-10R",
        "group": "resource",
        "lat": 61.507149551765885,
        "lon": -74.79878969731028,
        "alt_km": 610.3489959668386,
        "timestamp": "2025-12-18T17:50:14.614120+00:00",
        "meta_object_name": "GAOFEN-10R",
        "meta_object_id": "2019-066A",
        "meta_epoch": "2025-12-18T07:50:21.956928",
        "meta_mean_motion": 14.82810995,
        "meta_eccentricity": 0.00075057,
        "meta_inclination": 98.0284,
        "meta_ra_of_asc_node": 299.8547,
        "meta_arg_of_pericenter": 25.8168,
        "meta_mean_anomaly": 334.3418,
        "meta_ephemeris_type": 0,
        "meta_classification_type": "U",
        "meta_norad_cat_id": 44622,
        "meta_element_set_no": 999,
        "meta_rev_at_epoch": 33557,
        "meta_bstar": 0.00016562957,
        "meta_mean_motion_dot": 1.286e-05,
        "meta_mean_motion_ddot": 0,
        "tle_line1": "1 44622U 19066A   25352.32664302  .00001286  00000+0  16563-3 0  9993",
        "tle_line2": "2 44622  98.0284 299.8547 0007505  25.8168 334.3418 14.82810995335578"
      },
      "geometry": {
        "type": "Point",
        "coordinates": [
          -74.79878969731028,
          61.507149551765885
        ]
      }
    },
    {
      "type": "Feature",
      "properties": {
        "norad_id": 44804,
        "name": "CARTOSAT-3",
        "group": "resource",
        "lat": -68.23429349796805,
        "lon": 71.40450579007661,
        "alt_km": 522.1940538633644,
        "timestamp": "2025-12-18T17:50:14.614130+00:00",
        "meta_object_name": "CARTOSAT-3",
        "meta_object_id": "2019-081A",
        "meta_epoch": "2025-12-18T07:04:39.080064",
        "meta_mean_motion": 15.1919988,
        "meta_eccentricity": 0.00140057,
        "meta_inclination": 97.4583,
        "meta_ra_of_asc_node": 51.8083,
        "meta_arg_of_pericenter": 65.8569,
        "meta_mean_anomaly": 294.4128,
        "meta_ephemeris_type": 0,
        "meta_classification_type": "U",
        "meta_norad_cat_id": 44804,
        "meta_element_set_no": 999,
        "meta_rev_at_epoch": 33600,
        "meta_bstar": 0.0001971047,
        "meta_mean_motion_dot": 4.089e-05,
        "meta_mean_motion_ddot": 0,
        "tle_line1": "1 44804U 19081A   25352.29489676  .00004089  00000+0  19710-3 0  9998",
        "tle_line2": "2 44804  97.4583  51.8083 0014005  65.8569 294.4128 15.19199880336005"
      },
      "geometry": {
        "type": "Point",
        "coordinates": [
          71.40450579007661,
          -68.23429349796805
        ]
      }
    },
    {
      "type": "Feature",
      "properties": {
        "norad_id": 44819,
        "name": "GAOFEN-12 01",
        "group": "resource",
        "lat": -74.66742132460455,
        "lon": 28.91635075346902,
        "alt_km": 634.3576013563579,
        "timestamp": "2025-12-18T17:50:14.614140+00:00",
        "meta_object_name": "GAOFEN-12 01",
        "meta_object_id": "2019-082A",
        "meta_epoch": "2025-12-18T06:49:49.865088",
        "meta_mean_motion": 14.80663851,
        "meta_eccentricity": 0.00016638,
        "meta_inclination": 97.8124,
        "meta_ra_of_asc_node": 358.4201,
        "meta_arg_of_pericenter": 204.3782,
        "meta_mean_anomaly": 155.7352,
        "meta_ephemeris_type": 0,
        "meta_classification_type": "U",
        "meta_norad_cat_id": 44819,
        "meta_element_set_no": 999,
        "meta_rev_at_epoch": 32732,
        "meta_bstar": 6.0591445e-05,
        "meta_mean_motion_dot": 4.15e-06,
        "meta_mean_motion_ddot": 0,
        "tle_line1": "1 44819U 19082A   25352.28460492  .00000415  00000+0  60591-4 0  9992",
        "tle_line2": "2 44819  97.8124 358.4201 0001663 204.3782 155.7352 14.80663851327321"
      },
      "geometry": {
        "type": "Point",
        "coordinates": [
          28.91635075346902,
          -74.66742132460455
        ]
      }
    },
    {
      "type": "Feature",
      "properties": {
        "norad_id": 44873,
        "name": "CSG-1",
        "group": "resource",
        "lat": 65.1994833652595,
        "lon": 156.53450825405912,
        "alt_km": 615.2052323951411,
        "timestamp": "2025-12-18T17:50:14.614150+00:00",
        "meta_object_name": "CSG-1",
        "meta_object_id": "2019-092A",
        "meta_epoch": "2025-12-18T07:49:02.399808",
        "meta_mean_motion": 14.82147891,
        "meta_eccentricity": 0.00014941,
        "meta_inclination": 97.8803,
        "meta_ra_of_asc_node": 173.5657,
        "meta_arg_of_pericenter": 86.4329,
        "meta_mean_anomaly": 273.7055,
        "meta_ephemeris_type": 0,
        "meta_classification_type": "U",
        "meta_norad_cat_id": 44873,
        "meta_element_set_no": 999,
        "meta_rev_at_epoch": 32468,
        "meta_bstar": 6.4827811e-05,
        "meta_mean_motion_dot": 4.64e-06,
        "meta_mean_motion_ddot": 0,
        "tle_line1": "1 44873U 19092A   25352.32572222  .00000464  00000+0  64828-4 0  9994",
        "tle_line2": "2 44873  97.8803 173.5657 0001494  86.4329 273.7055 14.82147891324684"
      },
      "geometry": {
        "type": "Point",
        "coordinates": [
          156.53450825405912,
          65.1994833652595
        ]
      }
    }
  ]
}